SCD 1                   
1 22490U 93009B   20133.73098969  .00000224  00000-0  11552-4 0  9994
2 22490  24.9695 252.3005 0043083  11.4280 104.8834 14.44576547439118
TECHSAT 1B (GO-32)      
1 25397U 98043D   20133.81332211 -.00000009  00000-0  15388-4 0  9999
2 25397  98.7261  75.5859 0001895 128.3287 231.8062 14.23684492134704
SCD 2                   
1 25504U 98060A   20133.35612324  .00000205  00000-0  68865-5 0  9999
2 25504  24.9951 104.4318 0017315  26.9970 127.2430 14.44093246138344
LANDSAT 7               
1 25682U 99020A   20134.46190615  .00000022  00000-0  14678-4 0  9999
2 25682  98.0838 198.1646 0001259  64.7466 295.3867 14.57177155121148
DLR-TUBSAT              
1 25757U 99029B   20134.48278989 -.00000028  00000-0  46171-5 0  9995
2 25757  98.4262  61.9305 0013217 297.9364  62.0492 14.51419492110417
TERRA                   
1 25994U 99068A   20134.42368507  .00000051  00000-0  21476-4 0  9996
2 25994  98.2128 209.1927 0001412 103.6114 256.5242 14.57112611 85216
MAROC-TUBSAT            
1 27004U 01056D   20133.97426119 -.00000027  00000-0  20030-4 0  9992
2 27004  99.5112 267.9142 0020693 107.1132   4.1945 13.70140230921318
AQUA                    
1 27424U 02022A   20133.90749052  .00000080  00000-0  27837-4 0  9999
2 27424  98.2072  75.0533 0002833  89.1603 342.4453 14.57121895958690
IRS-P6 (RESOURCESAT-1)  
1 28051U 03046A   20134.40265294 -.00000003  00000-0  13927-4 0  9991
2 28051  98.4835 211.6683 0059161 130.1687 230.4707 14.34167502861360
SHIYAN 1 (SY-1)         
1 28220U 04012A   20134.46946564  .00000948  00000-0  81019-4 0  9999
2 28220  97.8492 103.2712 0011741 354.2439   5.8647 15.00047918875482
FORMOSAT-2 (ROCSAT 2)   
1 28254U 04018A   20134.08494568 -.00000062  00000-0 -13591-4 0  9991
2 28254  98.7084 169.2806 0002287  47.0914 331.6186 14.00634787817111
AURA                    
1 28376U 04026A   20134.10543328  .00000076  00000-0  26835-4 0  9995
2 28376  98.2066  77.4039 0001600  79.6337 280.5042 14.57113098841813
IRS-P5 (CARTOSAT-1)     
1 28649U 05017A   20134.16713924  .00000039  00000-0  11041-4 0  9998
2 28649  97.8142 203.8078 0001730 144.3171 215.8159 14.83694992813280
SINAH 1                 
1 28893U 05043D   20133.87420281 -.00000006  00000-0  79137-5 0  9992
2 28893  98.0176 265.3291 0016368  58.0815 302.1975 14.61530577775120
EROS B                  
1 29079U 06014A   20134.53154763  .00001157  00000-0  52029-4 0  9998
2 29079  97.4101 255.7174 0008976 121.8690   9.3344 15.23084256779944
RESURS-DK 1             
1 29228U 06021A   20133.79849385  .00000033  00000-0  98423-5 0  9991
2 29228  69.9354 278.7660 0004463 195.5377 164.5648 15.02536338767393
ARIRANG-2 (KOMPSAT-2)   
1 29268U 06031A   20134.42432168 -.00000037  00000-0  17966-5 0  9992
2 29268  97.9932  21.7985 0015693 263.1561  96.7830 14.62275162736092
LAPAN-TUBSAT            
1 29709U 07001A   20134.39916561  .00000013  00000-0  81951-5 0  9998
2 29709  97.8581  94.6538 0011574 223.6402 136.3909 14.82218509721178
CARTOSAT-2 (IRS-P7)     
1 29710U 07001B   20134.42936291 -.00000258  00000-0 -23097-4 0  9995
2 29710  97.9173 194.9977 0028962 184.9328 175.1598 14.85757930720065
HAIYANG-1B              
1 31113U 07010A   20133.73216433 -.00000011  00000-0  12240-4 0  9991
2 31113  98.4068 177.4391 0012924 322.1735  37.8539 14.30242483683057
COSMO-SKYMED 1          
1 31598U 07023A   20134.43993403 -.00000131  00000-0 -99438-5 0  9998
2 31598  97.8903 318.1244 0001544  84.7632 275.3757 14.82154215699644
TERRASAR-X              
1 31698U 07026A   20133.68125000  .00000311  00000-0  17986-4 0  9993
2 31698  97.4473 141.2060 0001638  87.1350 103.2450 15.19143118715865
WORLDVIEW-1 (WV-1)      
1 32060U 07041A   20134.31750628  .00000472  00000-0  22093-4 0  9998
2 32060  97.3823 254.4362 0002482  79.1438 281.0079 15.24476215703902
YAOGAN 3                
1 32289U 07055A   20134.37246296  .00000020  00000-0  93692-5 0  9996
2 32289  97.9930 149.2977 0001829  90.9763 269.1656 14.81013323675791
COSMO-SKYMED 2          
1 32376U 07059A   20134.40615485  .00000090  00000-0  17824-4 0  9990
2 32376  97.8903 318.0938 0001610  86.2179 273.9246 14.82157242672387
RADARSAT-2              
1 32382U 07061A   20134.35850010  .00000099  00000-0  55116-4 0  9994
2 32382  98.5765 141.4500 0001302  84.3162  32.6849 14.29983516647956
CARTOSAT-2A             
1 32783U 08021A   20134.41988474  .00000293  00000-0  47011-4 0  9990
2 32783  97.9239 194.8957 0014097 118.6538 241.6093 14.78676797649961
RAPIDEYE 2              
1 33312U 08040A   20134.24445557  .00000024  00000-0  72077-5 0  9994
2 33312  97.6950 199.8020 0013048 136.0849 224.1411 14.96081711632606
RAPIDEYE 5              
1 33313U 08040B   20133.76796845 -.00000154  00000-0 -89987-5 0  9994
2 33313  97.6930 198.2355 0015260  20.6314 339.5519 14.94375743632386
RAPIDEYE 1              
1 33314U 08040C   20134.15724810 -.00000285  00000-0 -20690-4 0  9992
2 33314  97.7148 199.8461 0027660 133.4706 226.8821 14.94817269632578
RAPIDEYE 3              
1 33315U 08040D   20133.73618776  .00000513  00000-0  49231-4 0  9993
2 33315  97.6986 198.3060 0005554  93.4564 266.7293 14.97323738632406
RAPIDEYE 4              
1 33316U 08040E   20134.22439656 -.00000368  00000-0 -28087-4 0  9993
2 33316  97.7027 198.7429 0008231  45.9447 314.2451 14.95464370632540
HUANJING 1A (HJ-1A)     
1 33320U 08041A   20134.51555296  .00000080  00000-0  18332-4 0  9991
2 33320  97.7900 187.6855 0026576 181.9875 178.1239 14.77064744629440
HUANJING 1B (HJ-1B)     
1 33321U 08041B   20134.51493016  .00000099  00000-0  21028-4 0  9999
2 33321  97.7980 189.9411 0033751 210.2594 149.6673 14.77226149629443
GEOEYE 1                
1 33331U 08042A   20134.47755619  .00000094  00000-0  26732-4 0  9998
2 33331  98.1034 209.2084 0009376 156.3407 203.8235 14.64309128624414
THEOS                   
1 33396U 08049A   20134.50977037  .00000078  00000-0  57325-4 0  9994
2 33396  98.7373 202.0132 0001040  74.7215 343.1113 14.20017170602102
COSMO-SKYMED 3          
1 33412U 08054A   20134.45681555 -.00000330  00000-0 -34909-4 0  9996
2 33412  97.8905 318.1432 0001395  82.6339 277.5049 14.82153635624851
YAOGAN 4                
1 33446U 08061A   20134.45525959  .00000053  00000-0  14427-4 0  9999
2 33446  97.7238  91.5070 0017659  93.4514 266.8717 14.77026090616662
GOSAT (IBUKI)           
1 33492U 09002A   20133.73065516  .00000061  00000-0  19128-4 0  9996
2 33492  98.0571 245.2713 0001404 106.7662 253.3697 14.67556402604919
YAOGAN 6                
1 34839U 09021A   20134.53204203  .00000336  00000-0  15156-4 0  9992
2 34839  97.0389 144.9029 0028968 142.6500 217.6761 15.26895622614484
DEIMOS-1                
1 35681U 09041A   20134.41290306 -.00000059  00000-0 -19234-5 0  9992
2 35681  97.8154   9.3183 0002231 125.7160 234.4240 14.71832551579235
DUBAISAT-1              
1 35682U 09041B   20134.39561536 -.00000184  00000-0 -23729-4 0  9998
2 35682  97.7312 314.9576 0012171   5.4602 354.6739 14.68788068577977
OCEANSAT-2              
1 35931U 09051A   20134.54965505  .00000070  00000-0  28928-4 0  9995
2 35931  98.2955 230.1668 0002655 127.5002 232.6435 14.50854577563355
WORLDVIEW-2 (WV-2)      
1 35946U 09055A   20134.40357888  .00000004  00000-0  15549-4 0  9991
2 35946  98.3979 208.3386 0002737  97.1876 262.9635 14.37668325555981
SMOS                    
1 36036U 09059A   20133.53024503  .00000025  00000-0  21714-4 0  9998
2 36036  98.4449 321.0723 0001444  92.6562 267.4792 14.39755857553193
YAOGAN 7                
1 36110U 09069A   20134.55388892  .00000057  00000-0  16608-4 0  9990
2 36110  98.2676 329.5683 0022671 325.8538  34.1206 14.75117392561355
TANDEM-X                
1 36605U 10030A   20133.68611111  .00000356  00000-0  20144-4 0  9997
2 36605  97.4474 141.2131 0002001  87.3693 129.5788 15.19142835548601
CARTOSAT-2B             
1 36795U 10035A   20134.38848010  .00000031  00000-0  11226-4 0  9991
2 36795  97.9223 194.3985 0013453 191.2704 168.8208 14.78674970531008
YAOGAN 10               
1 36834U 10038A   20134.35329752 -.00000005  00000-0  61761-5 0  9994
2 36834  97.9766 137.7604 0001639  82.5807 277.5593 14.80969824527538
COSMO-SKYMED 4          
1 37216U 10060A   20134.41882915 -.00000004  00000-0  61209-5 0  9992
2 37216  97.8899 318.1044 0001645  81.5981 278.5422 14.82156759514930
RESOURCESAT-2           
1 37387U 11015A   20132.40468703 -.00000046  00000-0 -12436-5 0  9999
2 37387  98.6795 207.8452 0005057 119.8135 240.3558 14.21642851470177
HAIYANG 2A              
1 37781U 11043A   20134.48498560 -.00000026  00000-0  17390-4 0  9992
2 37781  99.3173 142.7309 0001716  85.2380 274.8968 13.78720990440229
RASAT                   
1 37791U 11044D   20134.39744569  .00000022  00000-0  13150-4 0  9992
2 37791  98.1082 227.7535 0022665  23.5937 336.6300 14.64766411467118
MEGHA-TROPIQUES         
1 37838U 11058A   20133.68521092  .00000283  00000-0  10707-4 0  9998
2 37838  19.9769 227.7160 0009233 169.8070 190.2523 14.09696782442920
SRMSAT                  
1 37841U 11058D   20134.42767868  .00000306  00000-0  22902-4 0  9994
2 37841  19.9709 198.7793 0011666 218.6196 258.1603 14.10658266443305
YAOGAN 13               
1 37941U 11072A   20134.52956603  .00000373  00000-0  21510-4 0  9997
2 37941  97.5541  70.1748 0002338 134.0274 336.1967 15.18325189468670
PLEIADES 1A             
1 38012U 11076F   20134.40373086 -.00000679  00000-0 -13633-3 0  9993
2 38012  98.1997 209.3287 0001129  97.3435 262.7949 14.58542160447554
ZIYUAN 1-02C (ZY 1-02C) 
1 38038U 11079A   20134.34575864  .00000033  00000-0  27154-4 0  9991
2 38038  98.6927 186.8778 0007625  20.0611 340.0873 14.35279853439738
ZIYUAN 3 (ZY 3)         
1 38046U 12001A   20134.55221560  .00000405  00000-0  21144-4 0  9996
2 38046  97.4189 209.2785 0002414 331.8116 140.2762 15.21355406463319
